[{"OBJECT_NAME":"STARLINK-6140","OBJECT_ID":"2023-090L","EPOCH":"2026-03-09T22:54:44.119584","MEAN_MOTION":15.02533618,"ECCENTRICITY":0.00012835,"INCLINATION":43.0036,"RA_OF_ASC_NODE":273.1778,"ARG_OF_PERICENTER":261.6443,"MEAN_ANOMALY":98.4254,"EPHEMERIS_TYPE":0,"CLASSIFICATION_TYPE":"U","NORAD_CAT_ID":57111,"ELEMENT_SET_NO":999,"REV_AT_EPOCH":15045,"BSTAR":4.2759088e-5,"MEAN_MOTION_DOT":3.74e-6,"MEAN_MOTION_DDOT":0},{"OBJECT_NAME":"CZ-6A DEB","OBJECT_ID":"2024-140EK","EPOCH":"2026-03-09T15:28:36.104448","MEAN_MOTION":14.67108539,"ECCENTRICITY":0.016811,"INCLINATION":89.0843,"RA_OF_ASC_NODE":287.4051,"ARG_OF_PERICENTER":210.7562,"MEAN_ANOMALY":148.3722,"EPHEMERIS_TYPE":0,"CLASSIFICATION_TYPE":"U","NORAD_CAT_ID":60760,"ELEMENT_SET_NO":999,"REV_AT_EPOCH":8264,"BSTAR":0.00036142,"MEAN_MOTION_DOT":2.531e-5,"MEAN_MOTION_DDOT":0}]
